$$SOE
2461295.500000000, A.D. 2026-Sep-12 00:00:00.0000, 1.674474704119765E+05, -5.043478817301846E+08, -3.872154576169592E+07,
2461302.500000000, A.D. 2026-Sep-19 00:00:00.0000, 9.880121850824704E+06, -5.044503399409723E+08, -4.011333896785897E+07,
2461309.500000000, A.D. 2026-Sep-26 00:00:00.0000, 1.958911659919619E+07, -5.043639623884057E+08, -4.149011341667897E+07,
2461316.500000000, A.D. 2026-Oct-03 00:00:00.0000, 2.929080915907947E+07, -5.040891272633085E+08, -4.285138184498584E+07,
2461323.500000000, A.D. 2026-Oct-10 00:00:00.0000, 3.898159334001584E+07, -5.036262826930169E+08, -4.419666464142627E+07,
2461330.500000000, A.D. 2026-Oct-17 00:00:00.0000, 4.865788055919465E+07, -5.029759459970021E+08, -4.552548997338101E+07,
2461337.500000000, A.D. 2026-Oct-24 00:00:00.0000, 5.831610104641737E+07, -5.021387030171096E+08, -4.683739391623992E+07,
2461344.500000000, A.D. 2026-Oct-31 00:00:00.0000, 6.795270511135063E+07, -5.011152075900047E+08, -4.813192059947649E+07,
2461351.500000000, A.D. 2026-Nov-07 00:00:00.0000, 7.756416481217177E+07, -4.999061810890512E+08, -4.940862239449042E+07,
2461358.500000000, A.D. 2026-Nov-14 00:00:00.0000, 8.714697622624703E+07, -4.985124111496128E+08, -5.066706008999509E+07,
2461365.500000000, A.D. 2026-Nov-21 00:00:00.0000, 9.669766051057933E+07, -4.969347488968256E+08, -5.190680283283809E+07,
2461372.500000000, A.D. 2026-Nov-28 00:00:00.0000, 1.062127627536337E+08, -4.951741076839174E+08, -5.312742798823750E+07,
2461379.500000000, A.D. 2026-Dec-05 00:00:00.0000, 1.156888522384895E+08, -4.932314639976711E+08, -5.432852130479974E+07,
2461386.500000000, A.D. 2026-Dec-12 00:00:00.0000, 1.251225242827189E+08, -4.911078574214246E+08, -5.550967714506811E+07,
2461393.500000000, A.D. 2026-Dec-19 00:00:00.0000, 1.345104017677699E+08, -4.888043896505978E+08, -5.667049860783491E+07,
2461400.500000000, A.D. 2026-Dec-26 00:00:00.0000, 1.438491362153360E+08, -4.863222234298222E+08, -5.781059759995067E+07,
2461407.500000000, A.D. 2027-Jan-02 00:00:00.0000, 1.531354086862297E+08, -4.836625816035268E+08, -5.892959489841872E+07,
2461414.500000000, A.D. 2027-Jan-09 00:00:00.0000, 1.623659306180287E+08, -4.808267462606800E+08, -6.002712021177718E+07,
2461421.500000000, A.D. 2027-Jan-16 00:00:00.0000, 1.715374446357914E+08, -4.778160579655746E+08, -6.110281224325025E+07,
2461428.500000000, A.D. 2027-Jan-23 00:00:00.0000, 1.806467253806988E+08, -4.746319151149186E+08, -6.215631876315853E+07,
2461435.500000000, A.D. 2027-Jan-30 00:00:00.0000, 1.896905805433195E+08, -4.712757734699206E+08, -6.318729671185675E+07,
2461442.500000000, A.D. 2027-Feb-06 00:00:00.0000, 1.986658525251956E+08, -4.677491455247321E+08, -6.419541234463388E+07,
2461449.500000000, A.D. 2027-Feb-13 00:00:00.0000, 2.075694202671385E+08, -4.640535984931983E+08, -6.518034127699119E+07,
2461456.500000000, A.D. 2027-Feb-20 00:00:00.0000, 2.163981988787975E+08, -4.601907517058887E+08, -6.614176827837804E+07,
2461463.500000000, A.D. 2027-Feb-27 00:00:00.0000, 2.251491384643828E+08, -4.561622766309707E+08, -6.707938720522577E+07,
2461470.500000000, A.D. 2027-Mar-06 00:00:00.0000, 2.338192251628296E+08, -4.519698975966315E+08, -6.799290119328782E+07,
2461477.500000000, A.D. 2027-Mar-13 00:00:00.0000, 2.424054828027108E+08, -4.476153911668575E+08, -6.888202279546738E+07,
2461484.500000000, A.D. 2027-Mar-20 00:00:00.0000, 2.509049740427493E+08, -4.431005850065211E+08, -6.974647403014097E+07,
2461491.500000000, A.D. 2027-Mar-27 00:00:00.0000, 2.593148011999996E+08, -4.384273567857293E+08, -7.058598640365496E+07,
2461498.500000000, A.D. 2027-Apr-03 00:00:00.0000, 2.676321069684177E+08, -4.335976331719548E+08, -7.140030092967567E+07,
2461505.500000000, A.D. 2027-Apr-10 00:00:00.0000, 2.758540750885631E+08, -4.286133888872336E+08, -7.218916814913741E+07,
2461512.500000000, A.D. 2027-Apr-17 00:00:00.0000, 2.839779309899303E+08, -4.234766458443949E+08, -7.295234815382814E+07,
2461519.500000000, A.D. 2027-Apr-24 00:00:00.0000, 2.920009424850594E+08, -4.181894724235595E+08, -7.368961062575462E+07,
2461526.500000000, A.D. 2027-May-01 00:00:00.0000, 2.999204208160530E+08, -4.127539828603786E+08, -7.440073491745836E+07,
2461533.500000000, A.D. 2027-May-08 00:00:00.0000, 3.077337223627138E+08, -4.071723359981182E+08, -7.508551014057803E+07,
2461540.500000000, A.D. 2027-May-15 00:00:00.0000, 3.154382495169362E+08, -4.014467324519051E+08, -7.574373504788741E+07,
2461547.500000000, A.D. 2027-May-22 00:00:00.0000, 3.230314491598079E+08, -3.955794127781974E+08, -7.637521777744469E+07,
2461554.500000000, A.D. 2027-May-29 00:00:00.0000, 3.305108120972620E+08, -3.895726581180575E+08, -7.697977588666508E+07,
2461561.500000000, A.D. 2027-Jun-05 00:00:00.0000, 3.378738743396404E+08, -3.834287901829187E+08, -7.755723650157510E+07,
2461568.500000000, A.D. 2027-Jun-12 00:00:00.0000, 3.451182182181806E+08, -3.771501701518785E+08, -7.810743636188418E+07,
2461575.500000000, A.D. 2027-Jun-19 00:00:00.0000, 3.522414730076589E+08, -3.707391974160789E+08, -7.863022180786087E+07,
2461582.500000000, A.D. 2027-Jun-26 00:00:00.0000, 3.592413153348562E+08, -3.641983084317709E+08, -7.912544875586915E+07,
2461589.500000000, A.D. 2027-Jul-03 00:00:00.0000, 3.661154695052844E+08, -3.575299756740152E+08, -7.959298267385416E+07,
2461596.500000000, A.D. 2027-Jul-10 00:00:00.0000, 3.728617077852570E+08, -3.507367066825745E+08, -8.003269855927177E+07,
2461603.500000000, A.D. 2027-Jul-17 00:00:00.0000, 3.794778506757051E+08, -3.438210432390316E+08, -8.044448092574300E+07,
2461610.500000000, A.D. 2027-Jul-24 00:00:00.0000, 3.859617673341474E+08, -3.367855607377940E+08, -8.082822381763291E+07,
2461617.500000000, A.D. 2027-Jul-31 00:00:00.0000, 3.923113765566275E+08, -3.296328675152006E+08, -8.118383087080081E+07,
2461624.500000000, A.D. 2027-Aug-07 00:00:00.0000, 3.985246481198409E+08, -3.223656029853258E+08, -8.151121530693018E+07,
2461631.500000000, A.D. 2027-Aug-14 00:00:00.0000, 4.045996021829010E+08, -3.149864348367755E+08, -8.181029967110994E+07,
2461638.500000000, A.D. 2027-Aug-21 00:00:00.0000, 4.105343073663532E+08, -3.074980586548240E+08, -8.208101564413118E+07,
2461645.500000000, A.D. 2027-Aug-28 00:00:00.0000, 4.163268809391124E+08, -2.999031987647002E+08, -8.232330414564411E+07,
2461652.500000000, A.D. 2027-Sep-04 00:00:00.0000, 4.219754899329247E+08, -2.922046077931906E+08, -8.253711541547760E+07,
2461659.500000000, A.D. 2027-Sep-11 00:00:00.0000, 4.274783517900320E+08, -2.844050656099739E+08, -8.272240899955040E+07,
2461666.500000000, A.D. 2027-Sep-18 00:00:00.0000, 4.328337346780290E+08, -2.765073782989891E+08, -8.287915370615342E+07,
2461673.500000000, A.D. 2027-Sep-25 00:00:00.0000, 4.380399577015081E+08, -2.685143772374973E+08, -8.300732756040117E+07,
2461680.500000000, A.D. 2027-Oct-02 00:00:00.0000, 4.430953910862147E+08, -2.604289182552916E+08, -8.310691776195170E+07,
2461687.500000000, A.D. 2027-Oct-09 00:00:00.0000, 4.479984563587163E+08, -2.522538808785774E+08, -8.317792064884910E+07,
2461694.500000000, A.D. 2027-Oct-16 00:00:00.0000, 4.527476265850022E+08, -2.439921677133077E+08, -8.322034167808081E+07,
2461701.500000000, A.D. 2027-Oct-23 00:00:00.0000, 4.573414269279062E+08, -2.356467039731627E+08, -8.323419544731557E+07,
2461708.500000000, A.D. 2027-Oct-30 00:00:00.0000, 4.617784358985335E+08, -2.272204365409769E+08, -8.321950574244188E+07,
2461715.500000000, A.D. 2027-Nov-06 00:00:00.0000, 4.660572861397225E+08, -2.187163314352097E+08, -8.317630541231866E+07,
2461722.500000000, A.D. 2027-Nov-13 00:00:00.0000, 4.701766627572669E+08, -2.101373717584527E+08, -8.310463605867434E+07,
2461729.500000000, A.D. 2027-Nov-20 00:00:00.0000, 4.741353021003774E+08, -2.014865583140784E+08, -8.300454798592788E+07,
2461736.500000000, A.D. 2027-Nov-27 00:00:00.0000, 4.779319926086701E+08, -1.927669099259527E+08, -8.287610031688336E+07,
2461743.500000000, A.D. 2027-Dec-04 00:00:00.0000, 4.815655757026026E+08, -1.839814625471570E+08, -8.271936101402158E+07,
2461750.500000000, A.D. 2027-Dec-11 00:00:00.0000, 4.850349461669776E+08, -1.751332681219476E+08, -8.253440683462626E+07,
2461757.500000000, A.D. 2027-Dec-18 00:00:00.0000, 4.883390523021075E+08, -1.662253935400709E+08, -8.232132327246600E+07,
2461764.500000000, A.D. 2027-Dec-25 00:00:00.0000, 4.914768959940440E+08, -1.572609196851207E+08, -8.208020449983755E+07,
2461771.500000000, A.D. 2028-Jan-01 00:00:00.0000, 4.944475327450268E+08, -1.482429405614747E+08, -8.181115331230459E+07,
$$EOE